site_name,component,state,country,operational_status,latitude,longitude
Allen Stagefield AL,Army Active,Alabama,United States,Active,31.2309993833,-85.6506347178
Louisville Stagefield AL,Army Active,Alabama,United States,Active,31.8157331822,-85.6497984957
White Sands Missile Range NM,Army Active,New Mexico,United States,Active,33.1594636742,-106.425696182
Fort Monroe,Army Active,Virginia,United States,Inactive,37.0130203962,-76.3043760544
MCB Camp Smith,MC Active,Hawaii,United States,Active,21.3866284869,-157.905641308
MC Trng Area Bellows,MC Active,Hawaii,United States,Active,21.3621462703,-157.718266082
Glenview,Navy Active,Illinois,United States,Active,42.0917332083,-87.836545042
ALF Orange,Navy Active,Texas,United States,Active,27.8965304593,-98.0434307225
McClellan AFB,AF Active,California,United States,Inactive,38.6628404569,-121.403205934
Saylor Creek Air Force Range,AF Active,Idaho,United States,Active,42.7402329675,-115.563336812
Laughlin AFB,AF Active,Texas,United States,Active,29.3567318395,-100.782932919
Buckley AFB,AF Active,Colorado,United States,Active,39.7066728959,-104.757676168
Tyndall AFB,AF Active,Florida,United States,Active,30.0454712012,-85.5513688862
Columbus Auxiliary Airfield,AF Active,Mississippi,United States,Active,32.9398358551,-88.5791426256
Goodfellow AFB,AF Active,Texas,United States,Active,31.4321781557,-100.404389232
Fort Richardson,AF Active,Alaska,United States,Active,61.2656445617,-149.641025468
Birch Lake Recreation Annex,AF Active,Alaska,United States,Active,64.3175377667,-146.646980929
Louisville IAP-Standiford FL Site 1,AF Guard,Kentucky,United States,Active,38.1779889015,-85.7237952525
Kelly AFB,AF Active,Texas,United States,Active,29.3820160313,-98.5645372905
NG Camp Joseph T Robinson,Army Guard,Arkansas,United States,Active,34.9000362492,-92.3068019391
NG Camp Ashland,Army Guard,Nebraska,United States,Active,41.0800682176,-96.3363620056
NG Bethel ARM FMS,Army Guard,Alaska,United States,Inactive,60.7955330346,-161.767465275
NG GUARNG Barrigada Complex,Army Guard,Guam,Guam,Active,13.4740733886,144.809884745
NG Volkstone,Army Guard,West Virginia,United States,Active,39.4547971565,-79.6692506335
NAVBASE Coronado,Navy Active,California,United States,Active,32.7000190451,-117.207088939
Finegayan South,Navy Active,Guam,Guam,Active,13.5499832925,144.830853077
Grand Forks Defense Fuel Support Point,AF Active,North Dakota,United States,Active,47.9486816236,-97.0860532381
CSO Barbers Point HI,Navy Active,Hawaii,United States,Inactive,21.312229301,-158.066092323
Fort Bliss,Army Active,Texas,United States,Active,32.26208341,-106.075404444
Jim Creek,Navy Active,Washington,United States,Active,48.1997770937,-121.925681299
Pohakuloa Training Area,Army Active,Hawaii,United States,Active,19.7144170574,-155.626600781
Military Ocean Tml Sunny Point,Army Active,North Carolina,United States,Active,34.0182119696,-77.9732412004
Waianae Kai Military Reservation,Army Active,Hawaii,United States,Active,21.4469197196,-158.191081477
Picatinny Arsenal,Army Active,New Jersey,United States,Active,40.9543096396,-74.5446255065
Arlington Service Ctr,Navy Active,Virginia,United States,Active,38.8677348506,-77.0793350205
CBC Gulfport MS,Navy Active,Mississippi,United States,Active,30.3779481049,-89.1263993012
UTTR - North,AF Active,Utah,United States,Active,41.0243231993,-113.216942448
March ARB,AF Reserve,California,United States,Active,33.8888501058,-117.258472446
Newington Defense Fuel Support Point,AF Active,New Hampshire,United States,Active,43.1138099132,-70.814765745
Gila Bend Air Force Auxiliary Field,AF Active,Arizona,United States,Active,32.890154532,-112.728184427
Lakehurst,AF Active,New Jersey,United States,Active,40.0272120222,-74.3752601945
Randolph AFB,AF Active,Texas,United States,Active,29.5294863383,-98.2783394708
NG Macon Readiness Center,Army Guard,Georgia,United States,Active,32.8613917382,-83.6056544923
NG MTA Camp Butner,Army Guard,North Carolina,United States,Active,36.2015259374,-78.801333792
NG MTA Camp Rilea,Army Guard,Oregon,United States,Active,46.1288264462,-123.944346596
NG Frankfort Boone NG Center,Army Guard,Kentucky,United States,Active,38.1853052947,-84.9089928237
Makaha Ridge,Navy Active,Hawaii,United States,Active,22.1303466109,-159.725349007
NOLF Wolf,Navy Active,Alabama,United States,Active,30.3446850234,-87.5407700889
NAVSUPPACT Annapolis,Navy Active,Maryland,United States,Active,38.9820668667,-76.4838558469
Jonathan Dickinson Tracking Annex,AF Active,Florida,United States,Active,26.9825205984,-80.1068614293
Fort Gordon,Army Active,Georgia,United States,Active,33.3566628083,-82.2372795186
Camp Mackall,Army Active,North Carolina,United States,Active,35.0301022844,-79.4816241675
Indiana Army Ammunition Plant,Army Active,Indiana,United States,Inactive,38.452267261,-85.6060059365
MCAS Beaufort,MC Active,South Carolina,United States,Active,32.484834871,-80.7071873496
NAVSUPPACT Norfolk NSY,Navy Active,Virginia,United States,Active,36.816475644,-76.2994222614
Lafayette Rvr Complex,Navy Active,Virginia,United States,Active,36.9022639632,-76.3023442266
Bangor WA,Navy Active,Washington,United States,Active,47.7233921483,-122.714839767
Eglin Air Force Auxiliary Field 3 Duke Fld,AF Active,Florida,United States,Active,30.6490705509,-86.5276912145
Wright-Patt AFB,AF Active,Ohio,United States,Active,39.8174211612,-84.0507057402
Lackland AFB,AF Active,Texas,United States,Active,29.38670604,-98.6180831793
NG Sparta Armory,Army Guard,Illinois,United States,Active,38.160004736,-89.7239409546
NG MTA Camp Crowder Neosho,Army Guard,Missouri,United States,Active,36.7939679589,-94.3642921962
NG Hollidaysburg Readiness Center,Army Guard,Pennsylvania,United States,Active,40.4394550384,-78.4147910881
NG Camp Beauregard,Army Guard,Louisiana,United States,Active,31.3776577083,-92.3866852494
NG Helena Aviation RC- AASF- C12,Army Guard,Montana,United States,Active,46.608471557,-111.971041404
NG Lansing Joint Forces Readiness Center,Army Guard,Michigan,United States,Active,42.7681480625,-84.5713082578
NG Camp Perry Joint Training Center,Army Guard,Ohio,United States,Active,41.54343955,-83.0221332784
NG Oklahoma Military Department,Army Guard,Oklahoma,United States,Active,35.5035184926,-97.4701679958
NG Salina KS Training Center,Army Guard,Kansas,United States,Active,38.785720474,-97.6388622613
NAVOBSSTA Flagstaff AZ,Navy Active,Arizona,United States,Active,35.1875402981,-111.741594825
Target B-16,Navy Active,Nevada,United States,Active,39.3394330115,-118.880780116
Barin Field,Navy Active,Alabama,United States,Active,30.3910783123,-87.6313191791
Old Town Site 1,Navy Active,California,United States,Active,32.7486743431,-117.197008871
Broadway Complex,Navy Active,California,United States,Active,32.7136561362,-117.172024897
Mission Gorge Rec Area,Navy Active,California,United States,Active,32.8048190699,-117.093958022
McGuire,AF Active,New Jersey,United States,Active,40.0256494173,-74.5801329664
Northside Mid-South,Navy Active,Tennessee,United States,Active,35.3427908944,-89.8597481799
NSWC Carderock Div,Navy Active,Tennessee,United States,Active,35.0872036174,-90.1390498645
Umatilla Chemical Depot,Army Active,Oregon,United States,Active,45.8426458207,-119.437655677
Defense Supply Center Columbus,Army Active,Ohio,United States,Active,39.9796100871,-82.8985258467
US Army Garrison Selfridge,Army Active,Michigan,United States,Active,42.6609659498,-82.8128744872
Fort Wingate Depot Activity,Army Active,New Mexico,United States,Inactive,35.4623986207,-108.598242168
Pupukea Paalaa Uka Mil Road,Army Active,Hawaii,United States,Active,19.9692428627,-155.719658833
MCRD Beaufort,MC Active,South Carolina,United States,Active,32.337579472,-80.69617786
Marine Corps Museum,MC Active,Virginia,United States,Active,38.5203611824,-77.3647271918
Det Phil Pny Annex,Navy Active,Pennsylvania,United States,Active,39.8917550243,-75.1787438843
Naval Station Newport RI,Navy Active,Rhode Island,United States,Active,41.535278318,-71.3096354954
Sasa Valley,Navy Active,Guam,Guam,Active,13.4489097645,144.699606632
Utah Test and Training Range South UT,AF Active,Utah,United States,Active,40.4970086744,-113.563257825
Hill AFB,AF Active,Utah,United States,Active,41.128082376,-111.991247141
Youngstown,AF Reserve,Ohio,United States,Active,41.2673838021,-80.6786812118
Travis AFB,AF Active,California,United States,Active,38.2645314897,-121.942797537
The Farish Memorial Recreational Annex,AF Active,Colorado,United States,Active,38.9991596818,-104.999644284
Grissom ARB,AF Reserve,Indiana,United States,Active,40.6539758948,-86.1518428016
Pillar Point AFS,AF Active,California,United States,Active,37.4989475163,-122.498033406
Maxwell AFB,AF Active,Alabama,United States,Active,32.3830076533,-86.356311322
Eielson AFB,AF Active,Alaska,United States,Active,64.6741086836,-147.060214201
Francis S Gabreski Airport,AF Guard,New York,United States,Active,40.8369889702,-72.6434132546
Quonset State Airport,AF Guard,Rhode Island,United States,Active,41.5969299432,-71.4184961614
NG Beightler Armory,Army Guard,Ohio,United States,Active,40.0892143305,-83.0674428948
NG Elkins AFRC,Army Guard,West Virginia,United States,Active,38.9545040967,-79.9791154099
NG Anthony Cometa Complex,Army Guard,Nevada,United States,Active,36.0173819633,-115.200674517
NG TS Camp Johnson,Army Guard,Vermont,United States,Active,44.4996364569,-73.1646298114
Amphib Base Coronado East,Navy Active,California,United States,Active,32.6678869196,-117.157059858
Warner Springs Rts,Navy Active,California,United States,Active,33.3401617984,-116.68138499
Carlisle Barracks,Army Active,Pennsylvania,United States,Active,40.2073636557,-77.1688037409
Peterson AFB,AF Active,Colorado,United States,Active,38.822867706,-104.696062064
Tooele Army Depot,Army Active,Utah,United States,Active,40.5270428347,-112.411357721
Pueblo Chemical Depot,Army Active,Colorado,United States,Active,38.3171489216,-104.33242089
Yuma Proving Ground,Army Active,Arizona,United States,Active,33.1053210003,-114.213605815
NTC and Fort Irwin,Army Active,California,United States,Active,35.3743268559,-116.633388332
Hawthorne Army Depot,Army Active,Nevada,United States,Active,38.5411518559,-118.654781649
Lake City AAP,Army Active,Missouri,United States,Active,39.0968504854,-94.2501544756
Point of Marsh Target,MC Active,North Carolina,United States,Active,35.0110394592,-76.4580795598
MCLB Barstow,MC Active,California,United States,Active,34.8595418908,-116.94453311
NAS Oceana VA,Navy Active,Virginia,United States,Active,36.8137764139,-76.0309744664
Tenjo Vista,Navy Active,Guam,Guam,Active,13.4330059068,144.687514491
Offut AFB,AF Active,Nebraska,United States,Active,41.1180005456,-95.9064350192
Cavalier Asn,AF Active,North Dakota,United States,Active,48.7245309314,-97.9030701569
New Boston Air Station,AF Active,New Hampshire,United States,Active,42.937170491,-71.6412530372
Portland IAP ANG,AF Guard,Oregon,United States,Active,45.5783794843,-122.595521925
Scott AFB,AF Active,Illinois,United States,Active,38.5414818076,-89.8537036559
NG Camp Gruber,Army Guard,Oklahoma,United States,Active,35.6982004144,-95.1672665598
NG Mead TS/FMS 06/Utes 02,Army Guard,Nebraska,United States,Active,41.1935295586,-96.4384536797
NG Greenlief TS/UTES 01,Army Guard,Nebraska,United States,Active,40.5459251377,-98.2756208599
NG Silver Bell Army Heliport,Army Guard,Arizona,United States,Active,32.5228718308,-111.333461822
NG Camp Villere,Army Guard,Louisiana,United States,Active,30.3233531244,-89.8085256308
NG New Castle Readiness Center/FMS 9,Army Guard,Pennsylvania,United States,Active,40.9793982663,-80.3247870434
NG Saginaw,Army Guard,Texas,United States,Active,32.8550925586,-97.3503623315
NG Bremerton,Army Guard,Washington,United States,Active,47.552709639,-122.681322245
Target B-17,Navy Active,Nevada,United States,Active,39.2058446774,-118.232177679
Camp Morena,Navy Active,California,United States,Active,32.7116634719,-116.518554891
Upper Yard Annapolis,Navy Active,Maryland,United States,Active,38.9886655979,-76.4943484486
Yankee Target Range,Navy Active,Texas,United States,Active,28.2458871657,-98.724210101
Twin Cities AAP,Army Active,Minnesota,United States,Inactive,45.0981520846,-93.1742357902
Presidio of Monterey,Army Active,California,United States,Active,36.6032534708,-121.912105279
Fort Buchanan,Army Reserve,Puerto Rico,Puerto Rico,Active,18.4127920097,-66.1214794902
Fire Fighters School,Navy Active,Virginia,United States,Active,36.9215240082,-76.322723548
Magazine Reservoir Naval Magazine,Navy Active,Guam,Guam,Active,13.3903260139,144.686307577
Arnold,AF Active,Tennessee,United States,Active,35.3646392145,-86.0796716743
Eglin AFB Site 2 Santa Rosa Island,AF Active,Florida,United States,Active,30.394460792,-86.7427418884
Poinsett Range,AF Active,South Carolina,United States,Active,33.7961254892,-80.4817960181
Whiteman AFB,AF Active,Missouri,United States,Active,38.7299115089,-93.5553845227
Niagara Falls,AF Reserve,New York,United States,Active,43.1132212142,-78.9500571676
Cusick Survival Training Site,AF Active,Washington,United States,Active,48.4515209628,-117.373850327
Truax ANGB,AF Guard,Wisconsin,United States,Active,43.1306561021,-89.3361064283
Ellington Field,AF Guard,Texas,United States,Active,29.6160801417,-95.1704814148
Lincoln Map,AF Guard,Nebraska,United States,Active,40.841020615,-96.7538721771
JBSA Sam Houston,AF Active,Texas,United States,Active,29.4595308379,-98.4407138221
NG McConnelsville Training Site,Army Guard,Ohio,United States,Active,39.6614390075,-81.8394982857
NG St Cloud AASF,Army Guard,Minnesota,United States,Active,45.5390766509,-94.0557892236
NG Camp Pendleton SMR,Army Guard,Virginia,United States,Active,36.8161399548,-75.9791524396
NG Jackson Airport Armory,Army Guard,Tennessee,United States,Active,35.5981462433,-88.9129589106
ALF Cabaniss,Navy Active,Texas,United States,Active,27.7013359207,-97.4363492634
San Nicolas Island,Navy Active,California,United States,Active,33.2479609439,-119.506113048
NAS Whiting Field Milton FL,Navy Active,Florida,United States,Active,30.7137475905,-87.0201884489
Fort Campbell TN,Army Active,Tennessee,United States,Active,36.596494345,-87.599046902
Arlington National Cemetery,Army Active,Virginia,United States,Active,38.8778215838,-77.0690379263
Fort McCoy,Army Reserve,Wisconsin,United States,Active,44.0335308735,-90.6765636531
Fort Lesley J McNair,Army Active,District of Columbia,United States,Active,38.8671698257,-77.016494005
Helemano Military Reservation,Army Active,Hawaii,United States,Active,21.5359637869,-158.019432628
USA Field Station Kunia,Army Active,Hawaii,United States,Active,21.4768147455,-158.052424245
Twentynine Palms,MC Active,California,United States,Active,34.461945779,-116.210925972
MCB Quantico,MC Active,Virginia,United States,Active,38.5520544383,-77.4571616476
St Juliens Creek East,Navy Active,Virginia,United States,Active,36.7879489259,-76.3101638082
Elizabeth Rvr Channel,Navy Active,Virginia,United States,Active,36.8663757991,-76.3318847593
Naval Support Activity Wash,Navy Active,District of Columbia,United States,Active,38.8740586335,-76.9950963249
Naval Support Activity Panama City,Navy Active,Florida,United States,Active,30.1726207717,-85.7522787123
Nellis Annex,AF Active,Nevada,United States,Active,36.2384449698,-115.135834801
JB Andrews,AF Active,Maryland,United States,Active,38.8051681105,-76.8744692983
Schriever AFB,AF Active,Colorado,United States,Active,38.8058114757,-104.519907537
Charleston Defense Fuel Support Point,AF Active,South Carolina,United States,Active,32.9127968927,-79.983267572
Joint Base Charleston Short Stay,AF Active,South Carolina,United States,Active,33.2559459604,-79.9889000764
Maxwell AFB Gunter Annex,AF Active,Alabama,United States,Active,32.4070003775,-86.2462388765
Alpena County Regional Airport,AF Guard,Michigan,United States,Active,45.0843936284,-83.5700561745
Forbes Field ANG,AF Guard,Kansas,United States,Active,38.9609025845,-95.681207501
Kingsley Field Cantonement Site 1,AF Guard,Oregon,United States,Active,42.1604107875,-121.744216355
Nashville IAP,AF Guard,Tennessee,United States,Active,36.1109974019,-86.6749742271
NG Fort Worth - Shoreview,Army Guard,Texas,United States,Active,32.778187703,-97.458544842
NG Muscatatuck Urban Training Center,Army Guard,Indiana,United States,Active,39.0513458097,-85.5247386919
NG MTA Ft Wm Henry Harrison,Army Guard,Montana,United States,Active,46.626145715,-112.146444058
NG Ayer,Army Guard,Massachusetts,United States,Active,42.5489411722,-71.584497782
NG Macon TS,Army Guard,Missouri,United States,Active,39.6732925118,-92.5020276292
NG Johnson City Gray,Army Guard,Tennessee,United States,Active,36.4213309591,-82.4887633022
NG Muskogee AFRC,Army Guard,Oklahoma,United States,Active,35.6603704603,-95.3735309528
NG Fort Pickett ARNG MTC,Army Guard,Virginia,United States,Active,37.0367527263,-77.9093172808
NOLF Choctaw,Navy Active,Florida,United States,Active,30.5064032466,-86.9567087641
NOLF Evergreen,Navy Active,Alabama,United States,Active,31.4156644398,-87.0439393588
NAWS China Lake,Navy Active,California,United States,Active,35.9342694303,-117.643911309
Fort Hood,Army Active,Texas,United States,Active,31.2156853581,-97.7370319242
Air Force Plant 6,AF Active,Georgia,United States,Active,33.922334237,-84.5270544482
Subase Kings Bay GA,Navy Active,Georgia,United States,Active,30.7934587256,-81.5333259382
NAS Fallon NV,Navy Active,Nevada,United States,Active,39.4222968339,-118.704557143
Kawaihae Mil Reserve,Army Active,Hawaii,United States,Active,20.0318843522,-155.829966763
Fort Belvoir,Army Active,Virginia,United States,Active,38.7084767137,-77.1565160328
Naval Support Activity Crane,Navy Active,Indiana,United States,Active,38.8411900749,-86.8124514998
Naval Magazine,Navy Active,Guam,Guam,Active,13.3594268458,144.692281863
Tinker AFB,AF Active,Oklahoma,United States,Active,35.4191853794,-97.3929293521
Ellsworth AFB Site 2,AF Active,South Dakota,United States,Active,44.1331953443,-103.090999951
Homestead ARB,AF Reserve,Florida,United States,Active,25.4944981242,-80.3914944068
Lackland Training Annex,AF Active,Texas,United States,Active,29.3687556968,-98.6650123488
Yukon Weapons Range,AF Active,Alaska,United States,Active,64.768242806,-146.889492296
Jacksonville IAP,AF Guard,Florida,United States,Active,30.4863923135,-81.7054402836
Site 1 Cantonement Area,AF Guard,Ohio,United States,Active,40.8116650292,-82.5179560357
Martin State Airport,AF Guard,Maryland,United States,Active,39.3317978625,-76.4150756624
Salt Lake City IAP,AF Guard,Utah,United States,Active,40.7896351662,-111.956659778
NG Carville Gillis Long Center,Army Guard,Louisiana,United States,Active,30.2011201324,-91.1289504931
NG Springfield AVCRAD (New),Army Guard,Missouri,United States,Active,37.2532754828,-93.3909578934
NG Alcantra Armory Complex,Army Guard,Alaska,United States,Active,61.6030503345,-149.37484979
NG Camp Adair Corvallis,Army Guard,Oregon,United States,Active,44.714336076,-123.270695898
NG Kalaeloa,Army Guard,Hawaii,United States,Active,21.3189917251,-158.062484829
Aiea,Navy Active,Hawaii,United States,Active,21.3735152684,-157.937987691
Ewa,Navy Active,Hawaii,United States,Active,21.3388777428,-157.995139279
Sewage Evaporation Pond,Navy Active,California,United States,Active,36.243764679,-119.883529044
Moody AFB,AF Active,Georgia,United States,Active,30.9725276772,-83.1646930406
Tac X Stagefield AL,Army Active,Alabama,United States,Active,31.122537386,-85.9790965172
Fort Lewis,Army Active,Washington,United States,Active,47.0544740533,-122.552700903
Hunter Army Airfield,Army Active,Georgia,United States,Active,32.0096565094,-81.1535601851
Green River Test Complex UT,Army Active,Utah,United States,Inactive,38.9584020247,-110.096989229
Apra Heights,Navy Active,Guam,Guam,Active,13.4015824973,144.67867992
Andy South,Navy Active,Guam,Guam,Active,13.5080101985,144.865759041
Marysville WA,Navy Active,Washington,United States,Active,48.1237034582,-122.171056043
Laughlin AFB Aux 1,AF Active,Texas,United States,Active,29.1183865271,-100.47229345
Joint Base Charleston Naval Weapons Station,AF Active,South Carolina,United States,Active,32.9629279333,-79.9635724771
Luke Waste Annex,AF Active,Arizona,United States,Active,33.538406301,-112.321762273
Great Falls IAP,AF Guard,Montana,United States,Active,47.4765456036,-111.364979591
Hector IAP,AF Guard,North Dakota,United States,Active,46.913722408,-96.8044644308
Stewart IAP,AF Guard,New York,United States,Active,41.501405282,-74.0843453548
Burlington IAP,AF Guard,Vermont,United States,Active,44.4744278549,-73.1478968168
Canyon Lake Recreation Annex,AF Active,Texas,United States,Active,29.8846193966,-98.2193812601
NG Camp Dodge Johnston TS,Army Guard,Iowa,United States,Active,41.81021516,-93.7813025881
NG Fort Indiantown Gap,Army Guard,Pennsylvania,United States,Active,40.4359467182,-76.6296904585
NG Fort Wolters,Army Guard,Texas,United States,Active,32.8648656985,-98.0295707976
NG Beauregard Training Range,Army Guard,Louisiana,United States,Active,31.4394196846,-92.2955559116
NG ITC Camp San Luis Obisbo,Army Guard,California,United States,Active,35.3391521049,-120.703075007
NG Ft Allen Rq 177,Army Guard,Puerto Rico,Puerto Rico,Active,18.0130410519,-66.5056515785
NG TS Ethan Allen Range,Army Guard,Vermont,United States,Active,44.4717265822,-72.896538843
NG Gulfport AVCRAD,Army Guard,Mississippi,United States,Active,30.4161868882,-89.062874432
NG Camp Swift,Army Guard,Texas,United States,Active,30.2616699455,-97.2945537016
JBAB Anacostia Bolling,Navy Active,District of Columbia,United States,Active,38.8448751542,-77.0147335466
Honolulu,Navy Active,Hawaii,United States,Active,21.3462993357,-157.922047733
NAS JRB New Orleans LA,Navy Active,Louisiana,United States,Active,29.8313631946,-90.0208667897
NOLF Spencer,Navy Active,Florida,United States,Active,30.6253166375,-87.1398275231
NOTU Cape Canaveral,Navy Active,Florida,United States,Active,28.4282639805,-80.588426762
NAVWPNSYSTRAFAC Boardman,Navy Active,Oregon,United States,Active,45.72074181,-119.687435193
NAVSTA Everett WA,Navy Active,Washington,United States,Active,47.9883156828,-122.223175004
NAS Whidbey Island WA,Navy Active,Washington,United States,Active,48.3386378202,-122.661500903
Anniston Army Depot,Army Active,Alabama,United States,Active,33.6531336371,-85.9692368218
Fort Carson,Army Active,Colorado,United States,Active,38.5587412041,-104.826768506
Radford AAP,Army Active,Virginia,United States,Active,37.1870774617,-80.5424873564
Choc Mt Air Gnry Rng,MC Active,California,United States,Active,33.3119495462,-115.309239233
Pearl City Annex,MC Active,Hawaii,United States,Active,21.3835443747,-157.971379541
Yorktown Fuel Depot,Navy Active,Virginia,United States,Active,37.2159079687,-76.4860419602
Waterfront,Navy Active,New Jersey,United States,Active,40.422044168,-74.0704353876
Seymour Johnson AFB,AF Active,North Carolina,United States,Active,35.3479024962,-77.962577717
Westover ARB,AF Reserve,Massachusetts,United States,Active,42.1990993962,-72.5364984149
Eareckson AS,AF Active,Alaska,United States,Active,52.721036906,174.107140074
Cheyenne Regional Airport,AF Guard,Wyoming,United States,Active,41.1620252547,-104.821289643
Fort Smith Map,AF Guard,Arkansas,United States,Active,35.3414611154,-94.3704265035
Memphis IAP,AF Guard,Tennessee,United States,Active,35.025497959,-89.966549951
Springfield Beckley,AF Guard,Ohio,United States,Active,39.8490796654,-83.8354791953
Birmingham Airport,AF Guard,Alabama,United States,Active,33.5710203144,-86.7541411026
NG Camp Navajo,Army Guard,Arizona,United States,Active,35.1948003007,-111.850594633
NG HMO3 (Snake Creek TS),Army Guard,Florida,United States,Active,25.9624299881,-80.3047964814
NG CTC Fort Custer Trng Center,Army Guard,Michigan,United States,Active,42.2994261787,-85.3177166165
NG West Camp,Army Guard,South Dakota,United States,Active,44.0731899378,-103.30683687
Naval Hospital,Navy Active,Guam,Guam,Active,13.4739477757,144.740245884
Brooks AFB,AF Active,Texas,United States,Active,29.3427718639,-98.4396992143
Dover AFB,AF Active,Delaware,United States,Active,39.1265401339,-75.465256235
Fort A P Hill,Army Active,Virginia,United States,Active,38.1180327475,-77.2759052325
Tobyhanna Army Depot,Army Active,Pennsylvania,United States,Active,41.1975381899,-75.4291099943
MCAS Yuma,MC Active,Arizona,United States,Active,32.6453966733,-114.602240833
NNSY St Helena,Navy Active,Virginia,United States,Active,36.8255463263,-76.289264919
Cheatham Annex,Navy Active,Virginia,United States,Active,37.2849658658,-76.6194826812
JEBLCFS Wallops Island VA,Navy Active,Virginia,United States,Active,37.8861451185,-75.4686379534
GL Camp JPJ,Navy Active,Illinois,United States,Active,42.3003113359,-87.8539702937
NAS Pensacola FL,Navy Active,Florida,United States,Active,30.3527067706,-87.3063356676
Corry Station,Navy Active,Florida,United States,Active,30.4028604162,-87.2900851792
Clear Air Force Station,AF Active,Alaska,United States,Active,64.2881605755,-149.190714695
Joe Foss Field,AF Guard,South Dakota,United States,Active,43.5732338069,-96.7415313205
Des Moines IAP,AF Guard,Iowa,United States,Active,41.5443605816,-93.6660689484
EWVRA Shepherd Field,AF Guard,West Virginia,United States,Active,39.406011562,-77.9845939323
NG Camp Hartell,Army Guard,Connecticut,United States,Active,41.9420819916,-72.665875741
NG Martindale - AASF,Army Guard,Texas,United States,Active,29.4318157845,-98.3795077904
NG Marseilles (MTA Tng Area),Army Guard,Illinois,United States,Active,41.286945521,-88.6795863034
NG Hollis Plains Training Site,Army Guard,Maine,United States,Active,43.6687895015,-70.6637499429
NG Thunderbird Youth Academy,Army Guard,Oklahoma,United States,Active,36.2956939177,-95.2921270779
NG Fort McClellan ARNG Tng Center,Army Guard,Alabama,United States,Active,33.7333873334,-85.7878345164
NG CTA Camp Mccain,Army Guard,Mississippi,United States,Active,33.7108821376,-89.6859335176
NG Camp Smith Tng Site,Army Guard,New York,United States,Active,41.3118240947,-73.9509046086
Harmon,Navy Active,Guam,Guam,Active,13.5219204866,144.81563688
NAVBASE Point Loma,Navy Active,California,United States,Active,32.6962020716,-117.245822433
NSA Andersen,Navy Active,Guam,Guam,Active,13.5991888519,144.895032191
Dania Beach (Lauderdale),Navy Active,Florida,United States,Active,26.0918029314,-80.1100114622
Parks Reserve Forces Tng Area,Army Reserve,California,United States,Active,37.7301830972,-121.896604083
Highbluff Stagefield AL,Army Active,Alabama,United States,Active,31.1507181645,-85.7365895283
Kahuku Tng Area,Army Active,Hawaii,United States,Active,21.6554725925,-157.991699974
Kilauea Mil Reserve,Army Active,Hawaii,United States,Active,19.4339227624,-155.274146853
W Silver Spring Complex,Army Reserve,Wisconsin,United States,Active,43.122804331,-87.9772820103
Defense Distrib Depot Susq,Army Active,Pennsylvania,United States,Active,40.2081935416,-76.8392842405
Fort Detrick,Army Active,Maryland,United States,Active,39.4393426467,-77.4329802888
Devens Reserve Forces Tng Area,Army Reserve,Massachusetts,United States,Active,42.4983892077,-71.6564168902
Fort Benjamin Harrison,Army Active,Indiana,United States,Inactive,39.8591031687,-86.023591834
MCAS Miramar,MC Active,California,United States,Active,32.8768862606,-117.085904098
Gould Island RI,Navy Active,Rhode Island,United States,Active,41.537007483,-71.3449081892
Saufley Field,Navy Active,Florida,United States,Active,30.4703563325,-87.341464807
Dyess AFB,AF Active,Texas,United States,Active,32.4228638826,-99.8391523672
Vance AFB,AF Active,Oklahoma,United States,Active,36.337985538,-97.9145208117
Sioux Gateway Airport (ANG),AF Guard,Iowa,United States,Active,42.3949424324,-96.3728939608
General Wayne A Downing Peoria IAP,AF Guard,Illinois,United States,Active,40.6623266748,-89.7047451161
NG Camp Fogarty Tng Site,Army Guard,Rhode Island,United States,Active,41.6154323015,-71.4990309697
NG Bergstrom - (Abia),Army Guard,Texas,United States,Active,30.1763045639,-97.6720949612
NG Biak Training Center COUTES,Army Guard,Oregon,United States,Active,44.2000240894,-121.116641902
NG Nashville,Army Guard,Tennessee,United States,Active,36.0990427201,-86.7588114945
NG Papago Military Reservation,Army Guard,Arizona,United States,Active,33.4680085999,-111.961734255
NG Indianapolis 38 ID,Army Guard,Indiana,United States,Active,39.7443784632,-86.2281648634
NG CTC Camp Dawson-Kingwood,Army Guard,West Virginia,United States,Active,39.4053782409,-79.6650809272
NOLF Brewton,Navy Active,Alabama,United States,Active,31.0485248017,-87.0645146284
Amphib Base Coronado West,Navy Active,California,United States,Active,32.6713189664,-117.167654101
Balboa Hospital,Navy Active,California,United States,Active,32.7262714976,-117.145036279
NAVWPNSTA Seal Beach,Navy Active,California,United States,Active,33.7504659919,-118.064188826
Norco,Navy Active,California,United States,Active,33.9237676683,-117.569462918
Randsburg Wash Area,Navy Active,California,United States,Active,35.5147864004,-117.141406945
Verona Defense Fuel Support Point,AF Active,New York,United States,Active,43.1269235478,-75.5912449791
F E Warren AFB,AF Active,Wyoming,United States,Active,41.1707420451,-104.860338183
NARL Barrow Camp Tr1,Navy Active,Alaska,United States,Active,71.3217290437,-156.647955307
Sioux Gateway Airport (ANG),AF Guard,Iowa,United States,Active,42.3887282099,-96.3753394484
Yakima Training Center,Army Active,Washington,United States,Active,46.744530905,-120.165725249
Shell Basefield AL,Army Active,Alabama,United States,Active,31.3626015042,-85.8489813304
Fort George G Meade,Army Active,Maryland,United States,Active,39.1046170939,-76.7454436487
Scranton AAP,Army Active,Pennsylvania,United States,Active,41.404179439,-75.6659088025
Watervliet Arsenal,Army Active,New York,United States,Active,42.7198249748,-73.7081190476
MCLB Albany,MC Active,Georgia,United States,Active,31.5508944243,-84.0558826773
MCAS Cherry Point,MC Active,North Carolina,United States,Active,34.9120752465,-76.8854246963
Former NTC,MC Active,California,United States,Active,32.7293500339,-117.220992794
NSA Saratoga Springs NY,Navy Active,New York,United States,Active,43.0790804004,-73.8207400706
Pentagon Building Site,WHS,Virginia,United States,Active,38.8719172793,-77.0547227251
Elmendorf AFB,AF Active,Alaska,United States,Active,61.2697994083,-149.811188858
Fresno Yosemite International ANG,AF Guard,California,United States,Active,36.766535122,-119.71000318
St Louis Air Force Station,AF Active,Missouri,United States,Active,38.5912194524,-90.2083428154
NG Rickenbacker (MTA),Army Guard,Ohio,United States,Active,39.80503102,-82.9514625254
NG Camp Withycombe Clackamas,Army Guard,Oregon,United States,Active,45.412447609,-122.557961254
NG TS AFRC Los Alamitos,Army Guard,California,United States,Active,33.7912112939,-118.052226791
NG MTA Limestone Hills,Army Guard,Montana,United States,Active,46.2740762237,-111.579816882
NG MTC-H Camp Grayling,Army Guard,Michigan,United States,Active,44.6874716798,-84.7298829884
NG Kansas,Army Guard,Kansas,United States,Active,39.0201681146,-95.6832394397
Waipahu,Navy Active,Hawaii,United States,Active,21.3620293704,-157.988002333
Dredgers Key-Sigsbee,Navy Active,Florida,United States,Active,24.5785674303,-81.7735965378
NAVBASE San Diego CA,Navy Active,California,United States,Active,32.6757646692,-117.122748674
Finegayan,Navy Active,Guam,Guam,Active,13.5836144059,144.844294742
Bridgeport,MC Active,California,United States,Active,38.3744532716,-119.542277539
Haarp Research Station,AF Active,Alaska,United States,Active,62.4083568593,-145.155004797
Fort Lee,Army Active,Virginia,United States,Active,37.2494396184,-77.3347277202
Us Army Joint Sys Mfg CtrLima,Army Active,Ohio,United States,Active,40.6996401966,-84.1328894032
Grand Prairie Reserve Complex,Army Reserve,Texas,United States,Active,32.7399583948,-96.9564403611
Kipapa Ammo Storage Site,Army Active,Hawaii,United States,Inactive,21.4396274449,-158.003109942
NAVSTA Norfolk VA,Navy Active,Virginia,United States,Active,36.9433080035,-76.3015136921
Webster Field,Navy Active,Maryland,United States,Active,38.145841636,-76.4278909867
Point Arena Air Force Station,AF Active,California,United States,Inactive,38.891840042,-123.546579136
Dobbins ARB,AF Reserve,Georgia,United States,Active,33.9174086513,-84.5192362187
Columbus AFB,AF Active,Mississippi,United States,Active,33.6413120873,-88.4511187521
Bangor IAP,AF Guard,Maine,United States,Active,44.8175673815,-68.8298013821
McGhee Tyson Airport,AF Guard,Tennessee,United States,Active,35.8114939421,-84.0036709533
Gen Mitchell IAP,AF Guard,Wisconsin,United States,Active,42.9410456217,-87.8879842837
W K Kellogg,AF Guard,Michigan,United States,Active,42.3152607726,-85.2517650226
NG Stones Ranch Military Res,Army Guard,Connecticut,United States,Active,41.365115238,-72.2719883265
NG Jackson Bks,Army Guard,Louisiana,United States,Active,29.9610820259,-90.0054600369
NG Shelbyville,Army Guard,Indiana,United States,Active,39.5789596414,-85.8110236465
NG Camp Ravenna Joint Military Training Center,Army Guard,Ohio,United States,Active,41.1971787101,-81.0848343174
NG Rochester NGA and OMS 2,Army Guard,Minnesota,United States,Active,43.9969533709,-92.431667564
NG Youngstown Tng Site,Army Guard,New York,United States,Active,43.2374990056,-78.9726913885
NG Ethan Allen AFB MTA,Army Guard,Vermont,United States,Active,44.5098902146,-73.1635564756
NG Camp Rapid,Army Guard,South Dakota,United States,Active,44.0801387023,-103.266957925
Kamokala Ridge,Navy Active,Hawaii,United States,Active,22.0390260692,-159.754233043
JBPHH Pearl Harbor HI,Navy Active,Hawaii,United States,Active,21.3365657616,-157.947911019
Vieques West PR,Navy Active,Puerto Rico,Puerto Rico,Active,18.0962543996,-65.5122515814
Trumbo Point Annex,Navy Active,Florida,United States,Active,24.564687961,-81.7912167283
Santa Cruz Island,Navy Active,California,United States,Active,33.9949571838,-119.633496836
Tumon Tank Farm,Navy Active,Guam,Guam,Active,13.517951387,144.811096236
Lake Of The Ozarks Recreation,Army Active,Missouri,United States,Active,38.0893373204,-92.6050226881
Fort Shafter,Army Active,Hawaii,United States,Active,21.3459798367,-157.883423329
OLF Atlantic,MC Active,North Carolina,United States,Active,34.8948517394,-76.3494185567
MCB Camp Pendleton,MC Active,California,United States,Active,33.3617631238,-117.423573571
Sea Plane Base,Navy Active,Washington,United States,Active,48.2942162716,-122.600904083
Kegelman Air Force Auxiliary Field,AF Active,Oklahoma,United States,Active,36.7367977571,-98.1206530872
Pittsburgh IAP (ANG),AF Guard,Pennsylvania,United States,Active,40.4853906277,-80.2128717533
Smoky Hill ANG Range,AF Guard,Kansas,United States,Active,38.698673015,-97.8316970673
Seguin Auxiliary Field,AF Active,Texas,United States,Active,29.5647013744,-97.9056493003
NG Orchard Combat Training Center,Army Guard,Idaho,United States,Active,43.2274955645,-116.138977329
NG Raleigh,Army Guard,North Carolina,United States,Active,35.8091728617,-78.7120731248
NG TS Ike Skelton Jefferson City,Army Guard,Missouri,United States,Active,38.5515266427,-92.0684326746
NG Grand Island AASF/RC,Army Guard,Nebraska,United States,Active,40.9618173985,-98.2987920709
NG Lawrenceville,Army Guard,New Jersey,United States,Active,40.2697852903,-74.7446975393
Silver Strand South,Navy Active,California,United States,Active,32.5969675488,-117.128170944
Wahiawa,Navy Active,Hawaii,United States,Active,21.5204386438,-158.005639333
Dandan,Navy Active,Guam,Guam,Active,13.3106836826,144.736799463
SPAWARS South,Navy Active,California,United States,Active,32.6677774858,-117.240517357
Rome Laboratory,AF Active,New York,United States,Active,43.2214961419,-75.4097019981
Aberdeen Proving Ground,Army Active,Maryland,United States,Active,39.3897332632,-76.2184808653
Brown 4b Stagefield AL,Army Active,Alabama,United States,Active,31.3863190917,-85.9722716491
Toth Stagefield AL,Army Active,Alabama,United States,Active,31.2285844723,-85.5587094717
Schofield Barracks Military Reservation,Army Active,Hawaii,United States,Active,21.4956034912,-158.053239766
Fort Hamilton,Army Active,New York,United States,Active,40.6089967598,-74.0294500589
Iowa AAP,Army Active,Iowa,United States,Active,40.7920025926,-91.2456158021
ALF Bogue,MC Active,North Carolina,United States,Active,34.69285056,-77.0286825557
Naval Weapons Station Earle NJ,Navy Active,New Jersey,United States,Active,40.253857198,-74.1608483411
NAVSUPPACT Hampton Roads VA,Navy Active,Virginia,United States,Active,36.9250152893,-76.2996109684
Det Philadelphia PA,Navy Active,Pennsylvania,United States,Active,40.0413030722,-75.094581272
NAVBASE Guam,Navy Active,Guam,Guam,Active,13.4286325755,144.653464077
NAS Meridian MS,Navy Active,Mississippi,United States,Active,32.5531914123,-88.5695131272
NAVSUPPACT Midsouth Memphis TN,Navy Active,Tennessee,United States,Active,35.3314242265,-89.8707837951
Eglin AFB (Eglin Main and Reservation),AF Active,Florida,United States,Active,30.5759376196,-86.5283733486
Bradley IAP,AF Guard,Connecticut,United States,Active,41.9349940506,-72.7012504094
New Castle Airport,AF Guard,Delaware,United States,Active,39.6865096946,-75.5975562186
Pease ANGB,AF Guard,New Hampshire,United States,Active,43.0890854907,-70.8187307657
Savannah/Hilton Head IAP,AF Guard,Georgia,United States,Active,32.1264203859,-81.1897565604
MacDill AFB,AF Active,Florida,United States,Active,27.8436083654,-82.5010227484
NG TS Clark Natl Forest Wapp,Army Guard,Missouri,United States,Active,36.8915192187,-90.2799665184
NG Rosemount NG Armory,Army Guard,Minnesota,United States,Active,44.7477484831,-93.1276054375
Holtville Carrier LS,Navy Active,California,United States,Active,32.8385569471,-115.258177991
West Bank,Navy Active,Louisiana,United States,Active,29.9488308912,-90.0328996808
NOLF Summerdale,Navy Active,Alabama,United States,Active,30.5080389773,-87.6471946322
Santa Rosa Parcel B,Navy Active,Guam,Guam,Active,13.5358626798,144.914804435
Sheppard AFB,AF Active,Texas,United States,Active,33.984552387,-98.4996936818
OLF Coupeville,Navy Active,Washington,United States,Active,48.1896005828,-122.632442292
Mountain Home AFB,AF Active,Idaho,United States,Active,43.0489402334,-115.865880301
Beale AFB,AF Active,California,United States,Active,39.121056975,-121.395465168
MCB Camp Lejeune (East Site),MC Active,North Carolina,United States,Active,34.6433579946,-77.3051040489
Patrick AFB,AF Active,Florida,United States,Active,28.233869335,-80.6080075194
Military Ocean Terminal Concord,Army Active,California,United States,Active,38.0513971399,-122.018795364
Fort Campbell KY,Army Active,Kentucky,United States,Active,36.6697817061,-87.6718272017
Rock Island Arsenal,Army Active,Illinois,United States,Active,41.5170748739,-90.5411561301
Jacksonville FL Maint,MC Reserve,Florida,United States,Active,30.405301276,-81.6216735389
Puuloa-Oahu,MC Active,Hawaii,United States,Active,21.3182154989,-157.988054568
Fort Adams RI,Navy Active,Rhode Island,United States,Active,41.4753432866,-71.3399358753
NAVSTA Mayport FL,Navy Active,Florida,United States,Active,30.3815861854,-81.4248272955
NAS Corpus Christi TX,Navy Active,Texas,United States,Active,27.6924886772,-97.2793198862
Hurlburt Field,AF Active,Florida,United States,Active,30.4291906458,-86.6987100281
Minn-St Paul,AF Reserve,Minnesota,United States,Active,44.892490313,-93.2071583527
Vandenberg Main Base,AF Active,California,United States,Active,34.7135727132,-120.55814563
Will Rogers World Airport,AF Guard,Oklahoma,United States,Active,35.4076597475,-97.611671339
NG MTCH Camp Guernsey,Army Guard,Wyoming,United States,Active,42.3382282871,-104.809449137
NG Fort Chaffee MTC,Army Guard,Arkansas,United States,Active,35.2565207847,-94.1634392414
NG MTA Camp Shelby,Army Guard,Mississippi,United States,Active,31.0902463593,-89.0068676906
NG Picacho Aviation TS,Army Guard,Arizona,United States,Active,32.6629164638,-111.488032827
NG MTA Camp Edwards,Army Guard,Massachusetts,United States,Active,41.7003516585,-70.5448394116
NG MTA Camp Fretterd,Army Guard,Maryland,United States,Active,39.4979931517,-76.8456986902
NALF Goliad,Navy Active,Texas,United States,Active,28.6111807311,-97.6121549462
Naval Hospital,Navy Active,Florida,United States,Active,24.5688912079,-81.7508073951
Gambrills,Navy Active,Maryland,United States,Active,39.0567083217,-76.6762764474
NAVACAD North Severn,Navy Active,Maryland,United States,Active,38.9898516944,-76.4624264305
Navy Annex,Navy Active,California,United States,Active,36.5916541246,-121.860796344
Potts Tank Farm,Navy Active,Guam,Guam,Active,13.5867244468,144.862277501
Stump Neck Area,Navy Active,Maryland,United States,Active,38.5491137312,-77.2131682728
Keesler AFB,AF Active,Mississippi,United States,Active,30.4078255445,-88.9216855143
Shipyard Puget Sound,Navy Active,Washington,United States,Active,47.5591924008,-122.635482091
Fort Hunter Liggett,Army Reserve,California,United States,Active,35.9554065709,-121.253769516
Fort Riley,Army Active,Kansas,United States,Active,39.1866803598,-96.8208663239
Stinson 5AB Stagefield AL,Army Active,Alabama,United States,Active,31.359582043,-86.0139459687
Dugway Proving Ground,Army Active,Utah,United States,Active,40.1545151653,-113.284084389
Rivanna Station,Army Active,Virginia,United States,Active,38.1554946642,-78.4136946349
Fort Drum,Army Active,New York,United States,Active,44.1248120384,-75.5920674235
US Army Soldier Systems Center Natick,Army Active,Massachusetts,United States,Active,42.2895101722,-71.3633494213
Lone Star AAP (BRAC 2005),Army Active,Texas,United States,Inactive,33.402984165,-94.2554165694
Rocky Mountain Arsenal,Army Active,Colorado,United States,Inactive,39.8434493746,-104.839363783
Yermo Area,MC Active,California,United States,Active,34.8905585366,-116.870241242
Craney Island,Navy Active,Virginia,United States,Active,36.8887856719,-76.3605553448
Naval Weapons Station Yorktown,Navy Active,Virginia,United States,Active,37.2448033923,-76.5855659537
JEBLCFS East,Navy Active,Virginia,United States,Active,36.9231148685,-76.0174690076
Creech AFB,AF Active,Nevada,United States,Active,36.6512553805,-115.640007706
Malmstrom AFB,AF Active,Montana,United States,Active,47.5059106291,-111.182777387
Minot AFB,AF Active,North Dakota,United States,Active,48.4210623214,-101.338350153
USAF Academy,AF Active,Colorado,United States,Active,38.9946516318,-104.857157781
Isabela Puerto Rico,AF Active,Puerto Rico,Puerto Rico,Active,18.4637645502,-67.0658346043
Little Rock AFB,AF Active,Arkansas,United States,Active,34.9040005265,-92.1384692754
Bellows,AF Active,Hawaii,United States,Active,21.3636803488,-157.710220122
Luke AFB,AF Active,Arizona,United States,Active,33.5362891829,-112.374183665
Jackson IAP Thompson Field,AF Guard,Mississippi,United States,Active,32.3244710273,-90.0826770417
Otis ANG Base,AF Guard,Massachusetts,United States,Active,41.6461510573,-70.5337300198
Rickenbacker,AF Guard,Ohio,United States,Active,39.8128368963,-82.9437124972
Selfridge ANGB,AF Guard,Michigan,United States,Active,42.6124987986,-82.8324160105
Volk ANGB,AF Guard,Wisconsin,United States,Active,43.9362601246,-90.2543423584
Duluth IAP,AF Guard,Minnesota,United States,Active,46.8449538206,-92.172128284
Toledo/Exp Airport,AF Guard,Ohio,United States,Active,41.5865259257,-83.7919651408
NG Camp Niantic,Army Guard,Connecticut,United States,Active,41.3313986668,-72.1879440898
NG Pelham Range Training Site - Fort McClellan,Army Guard,Alabama,United States,Active,33.7179613001,-85.9502653692
NG MTC-H Camp Roberts,Army Guard,California,United States,Active,35.781595342,-120.780040594
NG St Cloud NG Armory,Army Guard,Minnesota,United States,Active,45.5648760428,-94.1774187425
NG Baton Rouge AFRC,Army Guard,Louisiana,United States,Active,30.3578247818,-91.1408358591
NG Camp Grafton,Army Guard,North Dakota,United States,Active,47.7711996949,-98.7161638156
NG Spring City Readiness Center,Army Guard,Pennsylvania,United States,Active,40.1899589793,-75.5558107769
NG MTA Gunpowder Military Reservation,Army Guard,Maryland,United States,Active,39.4323773898,-76.5050135446
NG Sioux Falls Benson Rd Complex,Army Guard,South Dakota,United States,Active,43.5892992575,-96.6754244833
Pearl City,Navy Active,Hawaii,United States,Active,21.3813432543,-157.974037315
Marbo,Navy Active,Guam,Guam,Active,13.4890012867,144.86534429
Edwards AFB,AF Active,California,United States,Active,34.8902967213,-117.848771224
Naval Observatory,Navy Active,District of Columbia,United States,Active,38.9214186847,-77.0670325804
Fort Knox,Army Active,Kentucky,United States,Active,37.9070173886,-85.8831225305
Fort Leonard Wood,Army Active,Missouri,United States,Active,37.7054875554,-92.1571252371
Fort Rucker AL,Army Active,Alabama,United States,Active,31.4040790084,-85.7473894209
Detroit Arsenal,Army Active,Michigan,United States,Active,42.4973285111,-83.0413341243
Fort Greely,Army Active,Alaska,United States,Active,63.9667780882,-145.715113744
Jefferson Proving Ground,Army Active,Indiana,United States,Inactive,38.9504184947,-85.4176312593
Riverbank AAP,Army Active,California,United States,Inactive,37.7212275293,-120.919493007
NSY Portsmouth,Navy Active,Maine,United States,Active,43.0813485814,-70.7333351232
Cape Cod Air Station,AF Active,Massachusetts,United States,Active,41.7536642401,-70.539124869
Norwalk 2,AF Reserve,California,United States,Active,33.8931849532,-118.070170962
Atlantic City IAP,AF Guard,New Jersey,United States,Active,39.4481861918,-74.5814031458
Yeager Airport,AF Guard,West Virginia,United States,Active,38.3731944221,-81.5895194077
NG Atlanta - Confederate Ave,Army Guard,Georgia,United States,Active,33.7222321357,-84.358887856
NG Collegeville FMS 4,Army Guard,Pennsylvania,United States,Active,40.2146157734,-75.4284194801
NG Buckeye TS,Army Guard,Arizona,United States,Active,33.4645500341,-112.601760483
NG Oglethorpe Armory,Army Guard,Georgia,United States,Active,33.6173832012,-84.309923744
NG River Road Training Site,Army Guard,Delaware,United States,Active,39.6334303612,-75.6070696877
NG Edgemeade TS Mtn Home,Army Guard,Idaho,United States,Active,43.1442443568,-115.652542493
NG Norman CSMS,Army Guard,Oklahoma,United States,Active,35.2643197322,-97.480057288
NG Westminster Training Site,Army Guard,Vermont,United States,Active,43.0858827247,-72.4513120197
NG VTS Catoosa,Army Guard,Georgia,United States,Active,34.9312156533,-85.0590610783
NG VTS Smyrna,Army Guard,Tennessee,United States,Active,36.0180985881,-86.5036120259
NG Saint George/FMS 5B,Army Guard,Utah,United States,Active,37.0337681833,-113.547140891
NAF El Centro,Navy Active,California,United States,Active,32.8253936819,-115.668153219
OLF Whitehouse,Navy Active,Florida,United States,Active,30.3562317642,-81.8711131789
Naval Support Activity Orlando,Navy Active,Florida,United States,Active,28.5841677574,-81.1967624389
George AFB,AF Active,California,United States,Inactive,34.5852155946,-117.373249538
NSA South Potomac,Navy Active,Virginia,United States,Active,38.3398584637,-77.0325546791
Grand Forks AFB,AF Active,North Dakota,United States,Active,47.9545695614,-97.3916932722
Ozol Defense Fuel Support Point,AF Active,California,United States,Active,38.0259039103,-122.16702561
Letterkenny Army Depot,Army Active,Pennsylvania,United States,Active,40.0203299941,-77.7018175626
Pinon Canyon,Army Active,Colorado,United States,Active,37.4975893419,-103.918064485
Skelly Stagefield AL,Army Active,Alabama,United States,Active,31.2857344505,-86.12984115
Tripler Army Medical Center,Army Active,Hawaii,United States,Active,21.3619820362,-157.889639813
Oak Grove,MC Active,North Carolina,United States,Active,35.0231361057,-77.2587195143
JNTEXPBASE Little Creek FS VA,Navy Active,Virginia,United States,Active,36.9168246358,-76.161868495
NAVMEDCEN Portsmouth VA,Navy Active,Virginia,United States,Active,36.8459831027,-76.3077533755
NAVSUPPACT Bethesda MD,Navy Active,Maryland,United States,Active,39.0019657147,-77.090338965
Kirtland,AF Active,New Mexico,United States,Active,34.9977382052,-106.481957879
Travis Annex  2,AF Active,California,United States,Active,38.3255053712,-121.923584762
Luis Munoz Marin IAP,AF Guard,Puerto Rico,Puerto Rico,Active,18.4435232394,-65.9923537212
Camp Bullis Training Annex,AF Active,Texas,United States,Active,29.6910786143,-98.561663659
NG Duluth NG Armory,Army Guard,Minnesota,United States,Active,46.8337009674,-92.1588343868
NG General Lucius D Clay National Guard Center,Army Guard,Georgia,United States,Active,33.9136159677,-84.5290173714
NG Camp Sherman Joint Training Center,Army Guard,Ohio,United States,Active,39.3556342155,-82.9509547956
NG McNary Field Salem AASF,Army Guard,Oregon,United States,Active,44.9117374881,-122.99982156
NG Jackson County AFRC,Army Guard,West Virginia,United States,Active,38.893477547,-81.829845717
NG Havre De Grace Military Res,Army Guard,Maryland,United States,Active,39.53266265,-76.1041166001
Target B-19,Navy Active,Nevada,United States,Active,39.1711271565,-118.636032149
Port Hueneme,Navy Active,California,United States,Active,34.1629044874,-119.208411478
NAS Jacksonville FL,Navy Active,Florida,United States,Active,30.2190944719,-81.6862419066
Dixie Target Range,Navy Active,Texas,United States,Active,28.0974161603,-98.7283712572
Cape Canaveral Air Force Station,AF Active,Florida,United States,Active,28.4788213467,-80.5711268805
Solomons Island MD,Navy Active,Maryland,United States,Active,38.3364781719,-76.4713794751
Pine Bluff Arsenal,Army Active,Arkansas,United States,Active,34.3261504449,-92.0867021569
Holston AAP,Army Active,Tennessee,United States,Active,36.5255506694,-82.6442165413
Redstone Arsenal,Army Active,Alabama,United States,Active,34.6328507804,-86.6571701025
Fort Huachuca,Army Active,Arizona,United States,Active,31.567419034,-110.329649033
Cairns Basefield AL,Army Active,Alabama,United States,Active,31.2786073023,-85.7149945144
Runkle Stagefield AL,Army Active,Alabama,United States,Active,31.3403853788,-86.091887871
Aliamanu Military Reservation,Army Active,Hawaii,United States,Active,21.3618785619,-157.911388913
Dillingham Mil Res,Army Active,Hawaii,United States,Active,21.5762316637,-158.198775803
Def Gen Supply Center,Army Active,Virginia,United States,Active,37.4187717327,-77.447528995
Fort Benning AL,Army Active,Alabama,United States,Active,32.2838712304,-84.9548431105
TBR Main,MC Active,Georgia,United States,Active,31.5484913702,-81.6199877022
Syracuse MCRC,MC Reserve,New York,United States,Active,43.1001011135,-76.1210991111
Tinker Support Annex,AF Active,Oklahoma,United States,Active,35.4036965841,-97.3603027818
Fort Fisher Recreation Site,AF Active,North Carolina,United States,Active,33.9811703229,-77.9164586721
Barksdale AFB,AF Active,Louisiana,United States,Active,32.5002809582,-93.5999413403
Cannon AFB,AF Active,New Mexico,United States,Active,34.3840149372,-103.321106281
Cannon AFB Site 2,AF Active,New Mexico,United States,Active,34.4091917117,-103.328244295
Luke Air Force Auxiliary Field No 1,AF Active,Arizona,United States,Active,33.7159742765,-112.527923384
Gulfport-Biloxi Regional Airport (ANG),AF Guard,Mississippi,United States,Active,30.4107264037,-89.0612086467
NG Auburn Training Site,Army Guard,Maine,United States,Active,44.0862933486,-70.2827983551
NG Bangor Training Site,Army Guard,Maine,United States,Active,44.8095482939,-68.8333959892
NG Santa Fe - Onate Complex TS,Army Guard,New Mexico,United States,Active,35.5697139671,-106.081041964
NG TS BBTS,Army Guard,Delaware,United States,Active,38.5475743328,-75.0633012841
NG Camp Murray,Army Guard,Washington,United States,Active,47.1167164937,-122.56884003
NG Williamstown,Army Guard,West Virginia,United States,Active,39.3531258872,-81.4421100584
NG Camp Mabry,Army Guard,Texas,United States,Active,30.3186106075,-97.7615720588
NG Mitchell Complex,Army Guard,South Dakota,United States,Active,43.7618744147,-98.0438934226
Imperial Beach NOLF,Navy Active,California,United States,Active,32.5624031522,-117.112009859
NAS Lemoore CA,Navy Active,California,United States,Active,36.3191796478,-119.93398605
Harbor Drive,Navy Active,California,United States,Active,32.7246963035,-117.218431918
NGA Arnold Site,AF Active,Missouri,United States,Active,38.4161872655,-90.3986079959
Nellis AFB,AF Active,Nevada,United States,Active,36.2692051709,-114.98483901
Naval Base Kitsap Bremerton WA,Navy Active,Washington,United States,Active,47.5555933853,-122.652356505
Fort Jackson,Army Active,South Carolina,United States,Active,34.0398329341,-80.8279912711
Fort Polk,Army Active,Louisiana,United States,Active,31.1583587094,-93.1211074078
Hunt Stagefield AL,Army Active,Alabama,United States,Active,31.3801590885,-85.5801110187
Fort De Russy,Army Active,Hawaii,United States,Active,21.2818165031,-157.833889161
Fort Detrick Forest Glen Annex,Army Active,Maryland,United States,Active,39.0062532255,-77.0549719287
SDA Area,Navy Active,Virginia,United States,Active,36.9200366625,-76.3166237521
Redington Township,Navy Active,Maine,United States,Active,44.9888095805,-70.4506315715
Bratenahl,Navy Active,Ohio,United States,Active,41.5424613695,-81.6261664945
Avon Park AF Range,AF Active,Florida,United States,Active,27.646918201,-81.2767274884
Langley AFB,AF Active,Virginia,United States,Active,37.0855727581,-76.3643682001
Charleston AFB,AF Active,South Carolina,United States,Active,32.8994019151,-80.0503551711
McEntire Joint National Guard Base,AF Guard,South Carolina,United States,Active,33.9228868864,-80.8006861299
Schenectady ANG MAP,AF Guard,New York,United States,Active,42.8521798908,-73.9228087372
Tulsa IAP,AF Guard,Oklahoma,United States,Active,36.21702376,-95.8747750984
Hulman Fld,AF Guard,Indiana,United States,Active,39.4539927154,-87.294448703
McConnell AFB,AF Active,Kansas,United States,Active,37.6251905946,-97.2602816317
NG Grayling Airfield,Army Guard,Michigan,United States,Active,44.6816424356,-84.7276786991
NG Camp Ripley,Army Guard,Minnesota,United States,Active,46.2108188793,-94.4252675838
NG Knightstown,Army Guard,Indiana,United States,Active,39.7713454952,-85.5168694395
NG Camp Atterbury,Army Guard,Indiana,United States,Active,39.2975804442,-86.0464169812
NG Rio Rancho TS,Army Guard,New Mexico,United States,Active,35.3734788352,-106.652026372
NG Sea Girt NJ NGTC,Army Guard,New Jersey,United States,Active,40.1238242063,-74.0373077638
NG Floyd Edsall Training Center,Army Guard,Nevada,United States,Active,36.2909200901,-115.041255853
NG MTA Camp Santiago,Army Guard,Puerto Rico,Puerto Rico,Active,18.0287728142,-66.283607501
NG TS Keaukaha Mil Res,Army Guard,Hawaii,United States,Active,19.7065531733,-155.038477564
NAS Fort Worth JRB TX,Navy Active,Texas,United States,Active,32.7688101038,-97.4336577395
NOLF Santa Rosa,Navy Active,Florida,United States,Active,30.6093001746,-86.9388110937
Agana,Navy Active,Guam,Guam,Active,13.473014243,144.764869419
Barrigada - NAVBASE Guam,Navy Active,Guam,Guam,Active,13.4768144414,144.828805596
NAVBASE Ventura Cty Point Mugu CA,Navy Active,California,United States,Active,34.1123267884,-119.110013772
NAVSUPPFAC Beaufort SC,Navy Active,South Carolina,United States,Active,32.3890480095,-80.681975435
Chesapeake Bay Detach,Navy Active,Maryland,United States,Active,38.6584730674,-76.5320162332
NAVPMOSSP Mtn View,Navy Active,California,United States,Active,37.4129145643,-122.028398714
Robins AFB,AF Active,Georgia,United States,Active,32.6175524438,-83.5815847711
Fort Leavenworth,Army Active,Kansas,United States,Active,39.3641697603,-94.9182512152
England Authority,Army Active,Louisiana,United States,Active,31.3346732622,-92.5403418877
Makua Mil Reserve,Army Active,Hawaii,United States,Active,21.5302283589,-158.206472387
Blossom Point Research Facility,Army Active,Maryland,United States,Active,38.421819049,-77.0922516528
MCRD San Diego,MC Active,California,United States,Active,32.7401689479,-117.197685657
Barry Goldwater Range,MC Active,Arizona,United States,Active,32.4982754369,-114.083222822
NNSY South Gate,Navy Active,Virginia,United States,Active,36.8036988938,-76.295425493
Fort Sheridan,Navy Active,Illinois,United States,Active,42.2096141173,-87.8061179586
Naval Station Great Lakes IL,Navy Active,Illinois,United States,Active,42.3134486946,-87.837631497
NAS Kingsville TX,Navy Active,Texas,United States,Active,27.4989619255,-97.8128477123
Davis Monthan AFB,AF Active,Arizona,United States,Active,32.1608016672,-110.848722373
Fairchild AFB,AF Active,Washington,United States,Active,47.6186626303,-117.648384327
North Air Force Auxiliary Field,AF Active,South Carolina,United States,Active,33.6025364855,-81.0785389952
Altus AFB,AF Active,Oklahoma,United States,Active,34.6637724659,-99.2745536786
Channel Islands ANG Station,AF Guard,California,United States,Active,34.1387961484,-119.111103634
Tucson IAP,AF Guard,Arizona,United States,Active,32.131404054,-110.949250831
Barnes Map (ANG),AF Guard,Massachusetts,United States,Active,42.1693653615,-72.7179961808
Kelly Field Annex,AF Active,Texas,United States,Active,29.3803737409,-98.5860052814
NG Camp Minden Training Site,Army Guard,Louisiana,United States,Active,32.558920284,-93.3940534723
NG Camp Bowie (State),Army Guard,Texas,United States,Active,31.6398553673,-98.9354829808
NG Cumming,Army Guard,Georgia,United States,Active,34.2243340362,-84.113051593
NG WH Ford Regional Tng Ctr,Army Guard,Kentucky,United States,Active,37.2776632835,-87.2010420465
Target B-20,Navy Active,Nevada,United States,Active,39.8842893913,-118.362806519
Fleming Key Magazine,Navy Active,Florida,United States,Active,24.5789198946,-81.7967315291
Truman Annex,Navy Active,Florida,United States,Active,24.5465408051,-81.8046496008
NMIC Suitland,Navy Active,Maryland,United States,Active,38.8488448496,-76.9366921526
Camp Michael Monsoor,Navy Active,California,United States,Active,32.6737007771,-116.443716929
NAVPMOSSP Magna Utah,Navy Active,Utah,United States,Active,40.6783887021,-112.073304281
Tumon,Navy Active,Guam,Guam,Active,13.5097297889,144.809944738
Kalaeloa,Navy Active,Hawaii,United States,Active,21.3205176793,-158.057471732
Keyport NUWC,Navy Active,Washington,United States,Active,47.6974412235,-122.621247466
Grant Training Annex,Army Active,Washington,United States,Active,47.2162520667,-119.310549756
West Point Military Reservation,Army Active,New York,United States,Active,41.3614873711,-74.0248942546
US Army Adelphi Laboratory Center,Army Active,Maryland,United States,Active,39.0329014118,-76.9604679336
Fort Detrick Glen Haven Annex,Army Active,Maryland,United States,Active,39.0334336403,-77.0417682376
Fort Wainwright,Army Active,Alaska,United States,Active,64.5447194846,-147.708445641
Savanna Depot Act,Army Active,Illinois,United States,Inactive,42.2279934146,-90.3368472542
Cornhusker AAP,Army Active,Nebraska,United States,Inactive,40.9388913146,-98.5167759592
MCB Camp Lejeune (West Site),MC Active,North Carolina,United States,Active,34.621693842,-77.4992450772
MCB Hawaii (Kaneohe Bay),MC Active,Hawaii,United States,Active,21.4453917613,-157.751594777
Dam Neck,Navy Active,Virginia,United States,Active,36.7885299152,-75.9653974721
ALF Fentress Chesapke,Navy Active,Virginia,United States,Active,36.6942700107,-76.1329722649
NSWC Carderock,Navy Active,Maryland,United States,Active,38.9749001795,-77.192328114
Barrigada - NSA Andersen,Navy Active,Guam,Guam,Active,13.4563838661,144.812569881
Manchester,Navy Active,Washington,United States,Active,47.5661084246,-122.545637948
Los Angeles Air Force Annex No4,AF Active,California,United States,Active,33.858772816,-118.235754982
Ellsworth AFB,AF Active,South Dakota,United States,Active,44.1579766168,-103.094346705
Boise Air Terminal,AF Guard,Idaho,United States,Active,43.5568774906,-116.222478963
Hancock Field,AF Guard,New York,United States,Active,43.1027478687,-76.1033314086
Montgomery Regional Airport ANGB,AF Guard,Alabama,United States,Active,32.3048358496,-86.4015268137
Sky Harbor IAP,AF Guard,Arizona,United States,Active,33.4258330523,-112.011682902
Dix,AF Active,New Jersey,United States,Active,40.0037812107,-74.523842926
Capital Airport,AF Guard,Illinois,United States,Active,39.8478937488,-89.6677190978
NG Orchard Mates Boise,Army Guard,Idaho,United States,Active,43.2971106582,-116.059842836
NG Bend Cotef,Army Guard,Oregon,United States,Active,44.0257924999,-121.128279438
NG VTS Milan,Army Guard,Tennessee,United States,Active,35.885569159,-88.6648080701
NG Florence Military Reservation,Army Guard,Arizona,United States,Active,33.0987644874,-111.356808928
NG Cambridge Springs,Army Guard,Pennsylvania,United States,Active,41.7941540406,-80.0478951
NG Camp Williams Tomah MTA,Army Guard,Wisconsin,United States,Active,43.928022567,-90.269506769
ALF Waldron,Navy Active,Texas,United States,Active,27.634308153,-97.3138397664
NAS Key West FL,Navy Active,Florida,United States,Active,24.5749669839,-81.69039869
Holloman AFB,AF Active,New Mexico,United States,Active,32.9177764497,-106.133624679
Bayview Idaho,Navy Active,Idaho,United States,Active,47.9773954717,-116.561529071
Fort Sill,Army Active,Oklahoma,United States,Active,34.6822588176,-98.4834145201
Fort Benning GA,Army Active,Georgia,United States,Active,32.3999496616,-84.8006217989
Red River Army Depot,Army Active,Texas,United States,Active,33.4337413314,-94.3556715243
Fort Monmouth Main Post,Army Active,New Jersey,United States,Inactive,40.3070528778,-74.0583806661
Destin Moreno Point,Army Active,Florida,United States,Active,30.4110996281,-86.4989034217
MCSF Blount Island (FL),MC Active,Florida,United States,Active,30.4013274303,-81.5250231825
Brooklyn NY,MC Reserve,New York,United States,Active,40.5814831188,-73.8816296342
Northwest Chesapeake VA,Navy Active,Virginia,United States,Active,36.5590985515,-76.2674854841
Naval Research Lab,Navy Active,District of Columbia,United States,Active,38.8240416139,-77.0233529625
FLC Fuel Depot Heckscher,Navy Active,Florida,United States,Active,30.4001829676,-81.6274334623
OLF Bravo,Navy Active,Mississippi,United States,Active,32.7964731631,-88.8318661019
Eglin Air Force Auxiliary Field 6,AF Active,Florida,United States,Active,30.6317649852,-86.7409720552
Fort Eustis,AF Active,Virginia,United States,Active,37.1322038995,-76.5886922923
Pittsburgh IAP (ARS),AF Reserve,Pennsylvania,United States,Active,40.4935734315,-80.2110502515
NG MTA Camp Clark Nevada,Army Guard,Missouri,United States,Active,37.8202969363,-94.2914729598
NG Arden Hills Army Training Site,Army Guard,Minnesota,United States,Active,45.0948962078,-93.161098097
NOLF Silverhill,Navy Active,Alabama,United States,Active,30.5619554651,-87.809337776
San Clemente IS NALF,Navy Active,California,United States,Active,32.9001520087,-118.485233843
Long Beach Fuel Complex,Navy Active,California,United States,Active,33.7420222138,-118.233407436
Shaw AFB,AF Active,South Carolina,United States,Active,33.9748590703,-80.4704194269
Fort Myer,Army Active,Virginia,United States,Active,38.8787064404,-77.0789885906
Stewart Annex,Army Active,New York,United States,Active,41.492587342,-74.0943357501
Joliet USARC/JTA,Army Reserve,Illinois,United States,Active,41.4243572171,-88.1425840657
Fort Stewart,Army Active,Georgia,United States,Active,31.9935650057,-81.6167723365
OLF Bronson,Navy Active,Florida,United States,Active,30.3837530139,-87.4141104616
Woolmarket (De Soto),Navy Active,Mississippi,United States,Active,30.5417021232,-88.9718210942
Hanscom AFB,AF Active,Massachusetts,United States,Active,42.4583211521,-71.2772680295
Tinker Aerospace Complex,AF Active,Oklahoma,United States,Active,35.3943672204,-97.3971588174
USAF Academy Auxiliary Airfield,AF Active,Colorado,United States,Active,38.7602885783,-104.301342147
Joint Base Charleston North Yard,AF Active,South Carolina,United States,Active,32.8751277796,-79.9700778332
Charlotte/Douglas IAP,AF Guard,North Carolina,United States,Active,35.216336113,-80.9298620418
NG Springfield (TS Cp Lincoln),Army Guard,Illinois,United States,Active,39.8233702226,-89.6708742707
NG Camp Bowie - Musgrave (Fed),Army Guard,Texas,United States,Active,31.6129210957,-98.9077016689
NG Camp Maxey,Army Guard,Texas,United States,Active,33.7990840775,-95.5602893853
NG MTA-L Camp Williams,Army Guard,Utah,United States,Active,40.427366421,-112.018173908
NG AASF Byrd Field,Army Guard,Virginia,United States,Active,37.4941399873,-77.3126601203
NG Ft Ruger,Army Guard,Hawaii,United States,Active,21.2628048817,-157.804556826
Tanguisson Point,Navy Active,Guam,Guam,Active,13.5415720981,144.808519807
Dryside,Navy Active,California,United States,Active,32.6848793364,-117.119468049
National City,Navy Active,California,United States,Active,32.6720920869,-117.113270451
NAVSUPPACT Monterey CA,Navy Active,California,United States,Active,36.5973431503,-121.873405389
Pumpkin Neck,Navy Active,Virginia,United States,Active,38.3019872977,-77.0421948817
Los Angeles AFB,AF Active,California,United States,Active,33.9189436972,-118.381099896
NAVSUPPACT Mechanicsburg PA,Navy Active,Pennsylvania,United States,Active,40.2274955202,-76.9864595933
King Salmon Airport,AF Active,Alaska,United States,Active,58.6913501355,-156.662974128
Sierra Army Depot,Army Active,California,United States,Active,40.209029472,-120.129103152
Blue Grass Army Depot,Army Active,Kentucky,United States,Active,37.6989542636,-84.2174546163
Fort Bragg,Army Active,North Carolina,United States,Active,35.1362367404,-79.143965339
Seward Recreation Area,Army Active,Alaska,United States,Active,60.1333143544,-149.433125482
Badger AAP,Army Active,Wisconsin,United States,Inactive,43.3515729211,-89.7323852075
Fort Gillem,Army Active,Georgia,United States,Inactive,33.6187655232,-84.3426139288
Fallbrook California,Navy Active,California,United States,Active,33.3588858097,-117.283210767
NAVSUBASE New London CT,Navy Active,Connecticut,United States,Active,41.3995458505,-72.0861454073
"NAVBASE Guam, Naval Magazine",Navy Active,Guam,Guam,Active,13.3879035827,144.685202104
CNI NAVMAG Indian Island,Navy Active,Washington,United States,Active,48.0532351447,-122.726218709
Arbuckle Airfield,AF Active,Florida,United States,Active,27.6521821531,-81.3476629744
Dare County Range,AF Active,North Carolina,United States,Active,35.7144803327,-75.8785604539
Melrose Air Force Range,AF Active,New Mexico,United States,Active,34.2860722856,-103.77946735
Reno Tahoe IAP,AF Guard,Nevada,United States,Active,39.5001625435,-119.775127354
Rosecrans MAP (139AG),AF Guard,Missouri,United States,Active,39.766575372,-94.9019988102
Medical Center Annex,AF Active,Texas,United States,Active,29.4600614664,-98.4165527202
NG Bismarck RJB Complex,Army Guard,North Dakota,United States,Active,46.8295477141,-100.719944017
NG Esler Field,Army Guard,Louisiana,United States,Active,31.3977339391,-92.2972827063
NG RW Shepherd Hope Hull,Army Guard,Alabama,United States,Active,32.2871055099,-86.3951588099
NG SMD,Army Guard,Alabama,United States,Active,32.4058257333,-86.2593591085
NG MTA Camp Curtis Guil,Army Guard,Massachusetts,United States,Active,42.5446993001,-71.0726606178
NG AASF02 Birmingham,Army Guard,Alabama,United States,Active,33.571050216,-86.7501493506
NG Training Site,Army Guard,New Hampshire,United States,Active,43.2778096245,-71.1222205603
NG Las Cruces,Army Guard,New Mexico,United States,Active,32.276155346,-106.935192899
NG Lincoln AASF/Readiness Center,Army Guard,Nebraska,United States,Active,40.8373288455,-96.7549863317
NG Lexington AASF No 1,Army Guard,Oklahoma,United States,Active,35.0265158472,-97.2305536823
CNIC PMRF Barking Sands HI,Navy Active,Hawaii,United States,Active,22.0626375204,-159.794099033
Ford Island,Navy Active,Hawaii,United States,Active,21.3635799432,-157.960293901
NOLF Holley,Navy Active,Florida,United States,Active,30.4250122837,-86.8928585763
Naval Air Station Patuxent River,Navy Active,Maryland,United States,Active,38.2810281573,-76.4210830732
NSF Indian Head,Navy Active,Maryland,United States,Active,38.5844840562,-77.1833880777
Tooele Army Depot South,Army Active,Utah,United States,Active,40.2968248498,-112.342992649
Joliet AAP Elwood,Army Active,Illinois,United States,Inactive,41.3575622757,-88.0658655188
Goldberg Stagefield AL,Army Active,Alabama,United States,Active,31.4151605009,-85.4634025079
Wheeler Army Airfield,Army Active,Hawaii,United States,Active,21.4754122511,-158.035536784
Milan AAP,Army Active,Tennessee,United States,Active,35.8738381813,-88.7061284354
Longhorn AAP,Army Active,Texas,United States,Inactive,32.6750303069,-94.133877757
Camp Frank D Merrill,Army Active,Georgia,United States,Active,34.7104639208,-84.1658763605
Allegany Ballistics Lab,Navy Active,West Virginia,United States,Active,39.5492530381,-78.8457345414
Nimitz Hill,Navy Active,Guam,Guam,Active,13.4658622049,144.723204156
White Bluff,AF Active,Washington,United States,Active,47.7027134391,-117.577508532
The Barry M Goldwater Air Force Range,AF Active,Arizona,United States,Active,32.64061507,-113.055868336
NG Hammond Airport,Army Guard,Louisiana,United States,Active,30.5230982285,-90.412182537
NG MTA Clarks Hill Reservation,Army Guard,South Carolina,United States,Active,33.7944394521,-82.2777706272
NG Lane County AFRC FMS 5,Army Guard,Oregon,United States,Active,44.065667942,-122.977783398
NG Bog Brook Training Site,Army Guard,Maine,United States,Active,44.3965120263,-70.9365409929
San Pedro Fuel Depot,Navy Active,California,United States,Active,33.7730532491,-118.301027333
Target 101 Shade Tree,Navy Active,California,United States,Active,32.9489566811,-115.750656601
Ramey AF Solar Observatory Research Site,AF Active,Puerto Rico,Puerto Rico,Active,18.5094327133,-67.0991288097
Nellis Air Force Range,AF Active,Nevada,United States,Active,37.3063972082,-116.198549994
